{
  "type": "FeatureCollection",
  "features": [
    {
      "type": "Feature",
      "properties": {
        "APN": "123-45-678",
        "OWNER_NAME": "John Doe",
        "OWNER_STATE": "CA"
      },
      "geometry": {
        "type": "Polygon",
        "coordinates": [
          [
            [-101.5, 31.4],
            [-101.4, 31.4],
            [-101.4, 31.5],
            [-101.5, 31.5],
            [-101.5, 31.4]
          ]
        ]
      }
    },
    {
      "type": "Feature",
      "properties": {
        "APN": "999-99-999",
        "OWNER_NAME": "Jane Smith",
        "OWNER_STATE": "TX"
      },
      "geometry": {
        "type": "Polygon",
        "coordinates": [
          [
            [-103.0, 31.0],
            [-102.9, 31.0],
            [-102.9, 31.1],
            [-103.0, 31.1],
            [-103.0, 31.0]
          ]
        ]
      }
    }
  ]
}